[ {"name": "STARLINK-34197", "line1": "1 64184U 25113Q   26108.14625508  .00009258  00000+0  32421-3 0  9991", "line2": "2 64184  53.1591 268.0316 0000894  55.1343 304.9742 15.30211351 51105"}, {"name": "STARLINK-34063", "line1": "1 64185U 25113R   26107.74064673  .00005532  00000+0  19876-3 0  9997", "line2": "2 64185  53.1581 269.7660 0001046  91.4781 268.6339 15.30197332 51047"}, {"name": "STARLINK-34200", "line1": "1 64186U 25113S   26107.91232051  .00006535  00000+0  23256-3 0  9995", "line2": "2 64186  53.1602 268.7041 0001030  62.0199 298.0906 15.30201399 51073"}, {"name": "STARLINK-33934", "line1": "1 64187U 25113T   26108.13675500  .00010784  00000+0  37559-3 0  9993", "line2": "2 64187  53.1557 267.9726 0000158 104.4710 255.6309 15.30207510 51060"}, {"name": "STARLINK-33929", "line1": "1 64188U 25113U   26108.13466223  .00025070  00000+0  85497-3 0  9992", "line2": "2 64188  53.1565 267.9552 0000727  87.4476 272.6609 15.30227904 51104"}, {"name": "STARLINK-33872", "line1": "1 64189U 25113V   26108.15985821  .00007034  00000+0  24933-3 0  9993", "line2": "2 64189  53.1595 267.4008 0001008 101.9747 258.1367 15.30205772 51070"}, {"name": "STARLINK-34214", "line1": "1 64190U 25113W   26108.14730960  .00010801  00000+0  37626-3 0  9995", "line2": "2 64190  53.1577 268.0340 0000882  73.6262 286.4836 15.30200868 51104"}, {"name": "STARLINK-34222", "line1": "1 64191U 25113X   26108.15258399  .00007708  00000+0  27204-3 0  9991", "line2": "2 64191  53.1583 268.0662 0001568  85.0853 275.0327 15.30208092 51065"}, {"name": "STARLINK-34265", "line1": "1 64192U 25113Y   26107.87866335  .00010262  00000+0  35818-3 0  9994", "line2": "2 64192  53.1577 269.2053 0000865  70.6511 289.4583 15.30193204 51023"}, {"name": "STARLINK-34245", "line1": "1 64193U 25113Z   26108.15563758  .00010863  00000+0  37834-3 0  9997", "line2": "2 64193  53.1596 267.3767 0001019 107.8775 252.2337 15.30202661 51071"}, {"name": "STARLINK-34237", "line1": "1 64194U 25113AA  26107.92499977  .00005460  00000+0  19640-3 0  9995", "line2": "2 64194  53.1590 268.7789 0000515 141.5140 218.5898 15.30188466 51035"}, {"name": "STARLINK-33857", "line1": "1 64195U 25113AB  26108.17885414  .00014115  00000+0  48769-3 0  9990", "line2": "2 64195  53.1609 267.5197 0000761  94.8217 265.2871 15.30205461 51074"}, {"name": "STARLINK-34173", "line1": "1 64196U 25113AC  26107.87022145  .00004935  00000+0  17865-3 0  9993", "line2": "2 64196  53.1581 269.1517 0001212  91.3851 268.7289 15.30197138 51067"}, {"name": "STARLINK-33966", "line1": "1 64203U 25117A   26107.59719498  .00008281  00000+0  29142-3 0  9998", "line2": "2 64203  53.1590 218.8110 0000618  23.3565 336.7464 15.30198592 50517"}, {"name": "STARLINK-34331", "line1": "1 64204U 25117B   26107.29491094  .00018267  00000+0  62708-3 0  9995", "line2": "2 64204  53.1599 220.4755 0001309  71.5793 288.5350 15.30214831 50431"}, {"name": "STARLINK-34251", "line1": "1 64205U 25117C   26108.27778310  .00021976  00000+0  75187-3 0  9990", "line2": "2 64205  53.1610 215.9441 0001888  88.6079 271.5138 15.30201065 50582"}, {"name": "STARLINK-34311", "line1": "1 64206U 25117D   26108.01968283  .00010608  00000+0  36974-3 0  9994", "line2": "2 64206  53.1621 217.1767 0000175 198.6593 161.4401 15.30200961 50574"}, {"name": "STARLINK-34324", "line1": "1 64207U 25117E   26107.59402788 -.00003542  00000+0 -10751-3 0  9996", "line2": "2 64207  53.1588 218.7890 0000521  26.7690 333.3337 15.30202909 49452"}, {"name": "STARLINK-34327", "line1": "1 64208U 25117F   26108.03645956  .00019711  00000+0  67574-3 0  9991", "line2": "2 64208  53.1609 216.5750 0001291  90.4929 269.6220 15.30206274 49514"}, {"name": "STARLINK-33944", "line1": "1 64209U 25117G   26107.71938430  .00010547  00000+0  36765-3 0  9994", "line2": "2 64209  53.1600 218.1628 0000827  30.2974 329.8074 15.30204284 50533"}, {"name": "STARLINK-34310", "line1": "1 64210U 25117H   26108.03856825  .00010814  00000+0  37658-3 0  9998", "line2": "2 64210  53.1602 216.5867 0001102  86.6162 273.4965 15.30210644 50557"}, {"name": "STARLINK-34258", "line1": "1 64211U 25117J   26108.28821918  .00012007  00000+0  41677-3 0  9993", "line2": "2 64211  53.1593 215.2976 0001292 105.7674 254.3469 15.30206453 50599"}, {"name": "STARLINK-34284", "line1": "1 64212U 25117K   26108.29455066  .00012032  00000+0  41758-3 0  9990", "line2": "2 64212  53.1606 215.3390 0001127  94.0416 266.0713 15.30208377 50596"}, {"name": "STARLINK-34332", "line1": "1 64213U 25117L   26108.02391214  .00015317  00000+0  52773-3 0  9994", "line2": "2 64213  53.1597 217.2023 0001985  78.9858 281.1366 15.30228906 50573"}, {"name": "STARLINK-34283", "line1": "1 64214U 25117M   26108.02907068  .00009746  00000+0  34070-3 0  9994", "line2": "2 64214  53.1589 216.5256 0001402  90.0737 270.0424 15.30204175 50552"}, {"name": "STARLINK-34349", "line1": "1 64215U 25117N   26108.00068977  .00009548  00000+0  33393-3 0  9997", "line2": "2 64215  53.1588 217.0540 0000835  81.4797 278.6299 15.30213495 50541"}, {"name": "STARLINK-34296", "line1": "1 64216U 25117P   26108.31037953  .00013966  00000+0  48269-3 0  9999", "line2": "2 64216  53.1590 215.4362 0001140  79.1225 280.9904 15.30205534 50622"}, {"name": "STARLINK-34320", "line1": "1 64217U 25117Q   26108.02179965  .00012528  00000+0  43434-3 0  9990", "line2": "2 64217  53.1602 217.1918 0001222  88.0590 272.0550 15.30202659 50543"}, {"name": "STARLINK-34300", "line1": "1 64218U 25117R   26108.30088398  .00019352  00000+0  66358-3 0  9993", "line2": "2 64218  53.1603 215.3797 0001328  91.8100 268.3053 15.30210298 50595"}, {"name": "STARLINK-34323", "line1": "1 64219U 25117S   26107.71832599  .00008682  00000+0  30494-3 0  9994", "line2": "2 64219  53.1591 218.1417 0000915  73.3684 286.7418 15.30197095 50537"}, {"name": "STARLINK-34328", "line1": "1 64220U 25117T   26107.99436061  .00009050  00000+0  31730-3 0  9994", "line2": "2 64220  53.1581 217.0179 0001040  80.5976 279.5142 15.30200797 50544"}, {"name": "STARLINK-34326", "line1": "1 64221U 25117U   26107.99647123  .00010022  00000+0  35001-3 0  9994", "line2": "2 64221  53.1581 217.0321 0001114  76.1673 283.9452 15.30201697 50577"}, {"name": "STARLINK-34318", "line1": "1 64222U 25117V   26108.25003472  .00043523  00000+0  14739-2 0  9994", "line2": "2 64222  53.1575 215.9325 0000980  93.6702 183.3026 15.30180087  5905"}, {"name": "STARLINK-34337", "line1": "1 64223U 25117W   26108.27144834  .00013257  00000+0  45881-3 0  9999", "line2": "2 64223  53.1589 215.9030 0001271  92.1059 268.0088 15.30208042 50582"}, {"name": "STARLINK-34304", "line1": "1 64224U 25117X   26107.52976596  .00022139  00000+0  75685-3 0  9999", "line2": "2 64224  53.1594 219.0957 0001492  86.0637 274.0534 15.30222939 50507"}, {"name": "STARLINK-34289", "line1": "1 64225U 25117Y   26107.99752662  .00014997  00000+0  51733-3 0  9998", "line2": "2 64225  53.1582 217.0370 0001051  85.4542 274.6579 15.30207032 50570"}, {"name": "STARLINK-34347", "line1": "1 64226U 25117Z   26108.26828143  .00008939  00000+0  31354-3 0  9994", "line2": "2 64226  53.1576 215.8792 0000989  87.5695 272.5419 15.30202525 50582"}, {"name": "STARLINK-34330", "line1": "1 64227U 25117AA  26107.72993221  .00007363  00000+0  26048-3 0  9999", "line2": "2 64227  53.1578 218.2078 0001084  80.9586 279.1537 15.30198240 50506"}, {"name": "STARLINK-34167", "line1": "1 64228U 25117AB  26108.03012779  .00011864  00000+0  41204-3 0  9997", "line2": "2 64228  53.1595 216.5272 0001110 103.2210 256.8915 15.30201210 50588"}, {"name": "STARLINK-34241", "line1": "1 64229U 25117AC  26108.27990148  .00015900  00000+0  54731-3 0  9993", "line2": "2 64229  53.1599 216.0182 0002303  72.0939 288.0313 15.30228877 50615"}, {"name": "STARLINK-11686 [DTC]", "line1": "1 64233U 25119A   26107.99852003  .00116481  00000+0  89838-3 0  9997", "line2": "2 64233  43.0000 332.4719 0001689 267.9062  92.1612 15.70845270 51424"}, {"name": "STARLINK-11682 [DTC]", "line1": "1 64234U 25119B   26106.99620737  .00125507  00000+0  96676-3 0  9991", "line2": "2 64234  42.9995 338.7265 0001939 270.1896  89.8750 15.70842764 51263"}, {"name": "STARLINK-11675 [DTC]", "line1": "1 64235U 25119C   26107.98168002  .00168855  00000+0  12915-2 0  9990", "line2": "2 64235  42.9977 332.3358 0002041 273.5239  86.5395 15.70864986 51427"}, {"name": "STARLINK-11691 [DTC]", "line1": "1 64236U 25119D   26107.32992872  .00125654  00000+0  96707-3 0  9991", "line2": "2 64236  43.0013 336.0387 0000987 356.4762   3.6098 15.70863499 51320"}, {"name": "STARLINK-11670 [DTC]", "line1": "1 64237U 25119E   26107.99759325  .00233493  00000+0  17593-2 0  9995", "line2": "2 64237  42.9994 332.4629 0006611 245.5937 114.4241 15.70998950 51421"}, {"name": "STARLINK-11708 [DTC]", "line1": "1 64238U 25119F   26107.04916991  .00162510  00000+0  12456-2 0  9990", "line2": "2 64238  43.0000 338.2546 0002002 255.7592 104.3053 15.70835213 51278"}, {"name": "STARLINK-11683 [DTC]", "line1": "1 64239U 25119G   26107.89154859  .00171041  00000+0  13081-2 0  9995", "line2": "2 64239  43.0004 332.5032 0001480 241.9388 118.1330 15.70860015 51414"}, {"name": "STARLINK-11684 [DTC]", "line1": "1 64240U 25119H   26107.92340570  .00130275  00000+0  10030-2 0  9993", "line2": "2 64240  42.9975 332.7572 0002681 283.9707  76.0862 15.70836117 51415"}, {"name": "STARLINK-11689 [DTC]", "line1": "1 64241U 25119J   26107.91278848  .00127014  00000+0  97819-3 0  9999", "line2": "2 64241  43.0018 332.6742 0003727 278.8435  81.2011 15.70836676 51411"}, {"name": "STARLINK-11690 [DTC]", "line1": "1 64242U 25119K   26107.90747752  .00195627  00000+0  14877-2 0  9991", "line2": "2 64242  43.0001 332.6303 0002828 262.6464  97.4083 15.70914743 51411"}, {"name": "STARLINK-11694 [DTC]", "line1": "1 64243U 25119L   26108.00822155  .00185252  00000+0  14119-2 0  9997", "line2": "2 64243  43.0033 332.5451 0003248 258.6740 101.3763 15.70893823 51425"}]